STARLINK-32211          
1 60270U 24131R   26162.67292231 -.00000460  00000+0 -33957-5 0  9998
2 60270  53.1615 336.2002 0001213  96.4118 263.7020 15.30188259106100
STARLINK-32164          
1 60271U 24131S   26162.67714265 -.00004153  00000+0 -12818-3 0  9999
2 60271  53.1618 336.2136 0001029  96.9473 263.1644 15.30199109106007
STARLINK-32128          
1 60272U 24131T   26162.69285292 -.00000107  00000+0  84999-5 0  9990
2 60272  53.1619 335.6012 0001173  79.2099 280.9034 15.30202512106118
STARLINK-32206          
1 60273U 24131U   26162.66659024 -.00001592  00000+0 -41671-4 0  9995
2 60273  53.1626 336.1580 0001104  85.3934 274.7193 15.30185270106100
STARLINK-32155          
1 60274U 24131V   26162.70468244  .00021856  00000+0  71381-3 0  9996
2 60274  53.1594 335.6776 0001146  80.7511 279.3620 15.31708365106015
STARLINK-32152          
1 60275U 24131W   26162.68970017 -.00001797  00000+0 -48581-4 0  9991
2 60275  53.1627 335.5830 0001256  92.7909 267.3236 15.30188232106013
STARLINK-32154          
1 60276U 24131X   26162.68335772 -.00000987  00000+0 -21211-4 0  9996
2 60276  53.1617 335.5371 0001019  86.0011 274.1106 15.30192299106111
STARLINK-32135          
1 60277U 24131Y   26162.70024387  .00002729  00000+0  10423-3 0  9993
2 60277  53.1613 335.6451 0001152  90.2903 269.8230 15.30197224106115
STARLINK-32156          
1 60278U 24132A   26162.69076890 -.00001233  00000+0 -29527-4 0  9996
2 60278  53.1630 335.7170 0000926  82.9775 277.1331 15.30194976107179
STARLINK-32010          
1 60279U 24132B   26162.69037198 -.00000375  00000+0 -33258-6 0  9999
2 60279  53.1626 335.7198 0001070  83.3027 276.8097 15.31699344105950
STARLINK-32118          
1 60280U 24132C   26162.68443572  .00003440  00000+0  12830-3 0  9991
2 60280  53.1633 335.6768 0001521  82.9468 277.1706 15.30181343105952
STARLINK-32038          
1 60281U 24132D   26162.68654124  .00000491  00000+0  28710-4 0  9997
2 60281  53.1616 335.6888 0001145  84.4936 275.6196 15.30196927105956
STARLINK-32113          
1 60282U 24132E   26162.68759899 -.00000960  00000+0 -20314-4 0  9998
2 60282  53.1617 335.6952 0000777  86.3724 273.7365 15.30196223105952
STARLINK-32037          
1 60283U 24132F   26162.69971308 -.00002863  00000+0 -80536-4 0  9997
2 60283  53.1609 335.7714 0000697  32.6129 327.4915 15.31695971105958
STARLINK-32123          
1 60284U 24132G   26162.64600905 -.00000814  00000+0 -15362-4 0  9994
2 60284  53.1619 323.3803 0001326  83.5735 276.5417 15.30187375106124
STARLINK-32122          
1 60285U 24132H   26162.70131707  .00000634  00000+0  33519-4 0  9993
2 60285  53.1619 335.7843 0001202  87.2082 272.9057 15.30197756105959
STARLINK-31656          
1 60286U 24132J   26162.67810891 -.00000823  00000+0 -15668-4 0  9995
2 60286  53.1625 335.6443 0001440  84.6461 275.4704 15.30183713105953
STARLINK-32114          
1 60287U 24132K   26162.70437551 -.00000478  00000+0 -36346-5 0  9991
2 60287  53.1614 335.7978 0000990  64.5470 295.5634 15.31698882105956
STARLINK-31997          
1 60288U 24132L   26162.66860725 -.00000739  00000+0 -12826-4 0  9996
2 60288  53.1620 335.5759 0000978  75.4583 284.6526 15.30182409105952
STARLINK-32000          
1 60289U 24132M   26162.67171006 -.00004256  00000+0 -12544-3 0  9999
2 60289  53.1605 335.6019 0001218  80.3386 279.7753 15.31702297105951
STARLINK-32141          
1 60290U 24132N   26162.69498515  .00000356  00000+0  24163-4 0  9996
2 60290  53.1625 335.7402 0001247  77.8347 282.2793 15.30197556105950
STARLINK-32142          
1 60291U 24132P   26162.67387088  .00002688  00000+0  10285-3 0  9996
2 60291  53.1627 335.6093 0001221  84.6088 275.5053 15.30193831105954
STARLINK-32149          
1 60292U 24132Q   26162.69537194  .00001592  00000+0  63059-4 0  9995
2 60292  53.1611 335.7420 0001245  58.4137 301.6986 15.31698419105952
STARLINK-32159          
1 60293U 24132R   26162.67177204 -.00000453  00000+0 -31769-5 0  9997
2 60293  53.1615 335.5938 0001264  98.0651 262.0493 15.30188466105959
STARLINK-32150          
1 60294U 24132S   26162.70003499  .00000528  00000+0  28761-4 0  9994
2 60294  53.1631 335.7765 0001171  91.0575 269.0561 15.31709292105953
STARLINK-32126          
1 60295U 24132T   26162.68603856 -.00001072  00000+0 -22776-4 0  9992
2 60295  53.1618 335.6859 0001183  92.8048 267.3089 15.31700058105956
STARLINK-32143          
1 60296U 24132U   26162.67670523 -.00001260  00000+0 -28837-4 0  9990
2 60296  53.1629 335.6297 0001440  95.1834 264.9331 15.31701504105950
STARLINK-32034          
1 60297U 24132V   26162.66236897 -.00000378  00000+0 -42839-6 0  9991
2 60297  53.1616 335.5408 0001393  85.3465 274.7696 15.31692431105959
STARLINK-32124          
1 60298U 24132W   26162.67204501 -.00002399  00000+0 -65564-4 0  9993
2 60298  53.1620 335.6054 0001346  74.0109 286.1041 15.31694281105957
STARLINK-32151          
1 60299U 24132X   26162.65636911 -.00000535  00000+0 -59527-5 0  9999
2 60299  53.1625 307.5192 0001271  92.0211 268.0935 15.30191552106342
