OBJECT_NAME,OBJECT_ID,EPOCH,MEAN_MOTION,ECCENTRICITY,INCLINATION,RA_OF_ASC_NODE,ARG_OF_PERICENTER,MEAN_ANOMALY,EPHEMERIS_TYPE,CLASSIFICATION_TYPE,NORAD_CAT_ID,ELEMENT_SET_NO,REV_AT_EPOCH,BSTAR,MEAN_MOTION_DOT,MEAN_MOTION_DDOT
STARLINK-32211,2024-131R,2026-06-11T16:09:00.487584,15.30188259,.0001213,53.1615,336.2002,96.4118,263.7020,0,U,60270,999,10610,-.33957E-5,-.46E-5,0
STARLINK-32164,2024-131S,2026-06-11T16:15:05.124960,15.30199109,.0001029,53.1618,336.2136,96.9473,263.1644,0,U,60271,999,10600,-.12818E-3,-.4153E-4,0
STARLINK-32128,2024-131T,2026-06-11T16:37:42.492288,15.30202512,.0001173,53.1619,335.6012,79.2099,280.9034,0,U,60272,999,10611,.84999E-5,-.107E-5,0
STARLINK-32206,2024-131U,2026-06-11T15:59:53.396736,15.30185270,.0001104,53.1626,336.1580,85.3934,274.7193,0,U,60273,999,10610,-.41671E-4,-.1592E-4,0
STARLINK-32155,2024-131V,2026-06-11T16:54:44.562816,15.31708365,.0001146,53.1594,335.6776,80.7511,279.3620,0,U,60274,999,10601,.71381E-3,.21856E-3,0
STARLINK-32152,2024-131W,2026-06-11T16:33:10.094688,15.30188232,.0001256,53.1627,335.5830,92.7909,267.3236,0,U,60275,999,10601,-.48581E-4,-.1797E-4,0
STARLINK-32154,2024-131X,2026-06-11T16:24:02.107008,15.30192299,.0001019,53.1617,335.5371,86.0011,274.1106,0,U,60276,999,10611,-.21211E-4,-.987E-5,0
STARLINK-32135,2024-131Y,2026-06-11T16:48:21.070368,15.30197224,.0001152,53.1613,335.6451,90.2903,269.8230,0,U,60277,999,10611,.10423E-3,.2729E-4,0
STARLINK-32156,2024-132A,2026-06-11T16:34:42.432960,15.30194976,.0000926,53.1630,335.7170,82.9775,277.1331,0,U,60278,999,10717,-.29527E-4,-.1233E-4,0
STARLINK-32010,2024-132B,2026-06-11T16:34:08.139072,15.31699344,.000107,53.1626,335.7198,83.3027,276.8097,0,U,60279,999,10595,-.33258E-6,-.375E-5,0
STARLINK-32118,2024-132C,2026-06-11T16:25:35.246208,15.30181343,.0001521,53.1633,335.6768,82.9468,277.1706,0,U,60280,999,10595,.1283E-3,.344E-4,0
STARLINK-32038,2024-132D,2026-06-11T16:28:37.163136,15.30196927,.0001145,53.1616,335.6888,84.4936,275.6196,0,U,60281,999,10595,.2871E-4,.491E-5,0
STARLINK-32113,2024-132E,2026-06-11T16:30:08.552736,15.30196223,.0000777,53.1617,335.6952,86.3724,273.7365,0,U,60282,999,10595,-.20314E-4,-.96E-5,0
STARLINK-32037,2024-132F,2026-06-11T16:47:35.210112,15.31695971,.0000697,53.1609,335.7714,32.6129,327.4915,0,U,60283,999,10595,-.80536E-4,-.2863E-4,0
STARLINK-32123,2024-132G,2026-06-11T15:30:15.181920,15.30187375,.0001326,53.1619,323.3803,83.5735,276.5417,0,U,60284,999,10612,-.15362E-4,-.814E-5,0
STARLINK-32122,2024-132H,2026-06-11T16:49:53.794848,15.30197756,.0001202,53.1619,335.7843,87.2082,272.9057,0,U,60285,999,10595,.33519E-4,.634E-5,0
STARLINK-31656,2024-132J,2026-06-11T16:16:28.609824,15.30183713,.000144,53.1625,335.6443,84.6461,275.4704,0,U,60286,999,10595,-.15668E-4,-.823E-5,0
STARLINK-32114,2024-132K,2026-06-11T16:54:18.044064,15.31698882,.000099,53.1614,335.7978,64.5470,295.5634,0,U,60287,999,10595,-.36346E-5,-.478E-5,0
STARLINK-31997,2024-132L,2026-06-11T16:02:47.666400,15.30182409,.0000978,53.1620,335.5759,75.4583,284.6526,0,U,60288,999,10595,-.12826E-4,-.739E-5,0
STARLINK-32000,2024-132M,2026-06-11T16:07:15.749184,15.31702297,.0001218,53.1605,335.6019,80.3386,279.7753,0,U,60289,999,10595,-.12544E-3,-.4256E-4,0
STARLINK-32141,2024-132N,2026-06-11T16:40:46.716960,15.30197556,.0001247,53.1625,335.7402,77.8347,282.2793,0,U,60290,999,10595,.24163E-4,.356E-5,0
STARLINK-32142,2024-132P,2026-06-11T16:10:22.444032,15.30193831,.0001221,53.1627,335.6093,84.6088,275.5053,0,U,60291,999,10595,.10285E-3,.2688E-4,0
STARLINK-32149,2024-132Q,2026-06-11T16:41:20.135616,15.31698419,.0001245,53.1611,335.7420,58.4137,301.6986,0,U,60292,999,10595,.63059E-4,.1592E-4,0
STARLINK-32159,2024-132R,2026-06-11T16:07:21.104256,15.30188466,.0001264,53.1615,335.5938,98.0651,262.0493,0,U,60293,999,10595,-.31769E-5,-.453E-5,0
STARLINK-32150,2024-132S,2026-06-11T16:48:03.023136,15.31709292,.0001171,53.1631,335.7765,91.0575,269.0561,0,U,60294,999,10595,.28761E-4,.528E-5,0
STARLINK-32126,2024-132T,2026-06-11T16:27:53.731584,15.31700058,.0001183,53.1618,335.6859,92.8048,267.3089,0,U,60295,999,10595,-.22776E-4,-.1072E-4,0
STARLINK-32143,2024-132U,2026-06-11T16:14:27.331872,15.31701504,.000144,53.1629,335.6297,95.1834,264.9331,0,U,60296,999,10595,-.28837E-4,-.126E-4,0
STARLINK-32034,2024-132V,2026-06-11T15:53:48.679008,15.31692431,.0001393,53.1616,335.5408,85.3465,274.7696,0,U,60297,999,10595,-.42839E-6,-.378E-5,0
STARLINK-32124,2024-132W,2026-06-11T16:07:44.688864,15.31694281,.0001346,53.1620,335.6054,74.0109,286.1041,0,U,60298,999,10595,-.65564E-4,-.2399E-4,0
STARLINK-32151,2024-132X,2026-06-11T15:45:10.291104,15.30191552,.0001271,53.1625,307.5192,92.0211,268.0935,0,U,60299,999,10634,-.59527E-5,-.535E-5,0
